EUTELSAT 21B            
1 38992U 12062B   25253.16487705  .00000128  00000+0  00000+0 0  9996
2 38992   0.0691 356.2832 0002718 176.4838 257.6169  1.00271708 47017
EUTELSAT 70B            
1 39020U 12069A   25253.17458376 -.00000045  00000+0  00000+0 0  9998
2 39020   0.0651 356.7126 0003878 176.2653 309.8245  1.00271785 46703
EUTELSAT 117 WEST A     
1 39122U 13012A   25253.13749027 -.00000015  00000+0  00000+0 0  9999
2 39122   0.0467 304.3519 0002917 230.9379 106.8278  1.00271853 45629
EUTELSAT 7B             
1 39163U 13022A   25253.16201704  .00000046  00000+0  00000+0 0  9996
2 39163   0.0693 340.7329 0000932  57.2168  16.8318  1.00269474 45147
EXPRESS-AT1             
1 39612U 14010A   25253.17172375  .00000077  00000+0  00000+0 0  9999
2 39612   0.0140 225.7435 0000349 236.9082   4.6379  1.00270189 42016
EXPRESS-AT2             
1 39613U 14010B   25253.25969079 -.00000283  00000+0  00000+0 0  9994
2 39613   0.0126 225.1991 0000483 219.4615 138.2277  1.00272078 41692
EUTELSAT 3B             
1 39773U 14030A   25253.16115037  .00000018  00000+0  00000+0 0  9995
2 39773   0.0639 352.9120 0004361 176.8285 240.8121  1.00271287 41250
EUTELSAT 115 WEST B     
1 40425U 15010B   25253.06645453 -.00000027  00000+0  00000+0 0  9990
2 40425   0.0370  10.8249 0000183 258.1066 349.4507  1.00272495 38587
